[{"OBJECT_NAME":"SHERPA-AC1","OBJECT_ID":"2022-057AH","EPOCH":"2026-03-09T21:11:59.609184","MEAN_MOTION":15.34672465,"ECCENTRICITY":0.00090365,"INCLINATION":97.6522,"RA_OF_ASC_NODE":214.174,"ARG_OF_PERICENTER":87.4363,"MEAN_ANOMALY":272.7914,"EPHEMERIS_TYPE":0,"CLASSIFICATION_TYPE":"U","NORAD_CAT_ID":52763,"ELEMENT_SET_NO":999,"REV_AT_EPOCH":21046,"BSTAR":0.00031898426,"MEAN_MOTION_DOT":0.00010651,"MEAN_MOTION_DDOT":0},{"OBJECT_NAME":"STARLINK-5082","OBJECT_ID":"2022-177AB","EPOCH":"2026-03-09T22:00:01.999584","MEAN_MOTION":15.19625958,"ECCENTRICITY":0.00018811,"INCLINATION":43.0011,"RA_OF_ASC_NODE":130.8926,"ARG_OF_PERICENTER":279.8198,"MEAN_ANOMALY":76.1776,"EPHEMERIS_TYPE":0,"CLASSIFICATION_TYPE":"U","NORAD_CAT_ID":54845,"ELEMENT_SET_NO":999,"REV_AT_EPOCH":573,"BSTAR":0.051218769,"MEAN_MOTION_DOT":0.01214193,"MEAN_MOTION_DDOT":0}]
